[{"OBJECT_NAME":"AETHER-2","OBJECT_ID":"2023-174AV","EPOCH":"2026-03-09T17:13:49.792224","MEAN_MOTION":15.33264165,"ECCENTRICITY":0.00086301,"INCLINATION":97.3931,"RA_OF_ASC_NODE":151.9008,"ARG_OF_PERICENTER":139.5247,"MEAN_ANOMALY":220.6639,"EPHEMERIS_TYPE":0,"CLASSIFICATION_TYPE":"U","NORAD_CAT_ID":58299,"ELEMENT_SET_NO":999,"REV_AT_EPOCH":12998,"BSTAR":0.00026165949,"MEAN_MOTION_DOT":8.341e-5,"MEAN_MOTION_DDOT":0},{"OBJECT_NAME":"STARLINK-35537","OBJECT_ID":"2025-245A","EPOCH":"2026-03-09T20:26:56.516928","MEAN_MOTION":15.30203977,"ECCENTRICITY":0.00018022,"INCLINATION":53.1582,"RA_OF_ASC_NODE":282.9849,"ARG_OF_PERICENTER":56.6152,"MEAN_ANOMALY":303.5021,"EPHEMERIS_TYPE":0,"CLASSIFICATION_TYPE":"U","NORAD_CAT_ID":66234,"ELEMENT_SET_NO":999,"REV_AT_EPOCH":2128,"BSTAR":0.0011612739,"MEAN_MOTION_DOT":0.00034197,"MEAN_MOTION_DDOT":0}]
