AETHER-2                
1 58299U 23174AV  26068.71793741  .00008341  00000+0  26166-3 0  9990
2 58299  97.3931 151.9008 0008630 139.5247 220.6639 15.33264165129982
STARLINK-35537          
1 66234U 25245A   26068.85204302  .00034197  00000+0  11613-2 0  9992
2 66234  53.1582 282.9849 0001802  56.6152 303.5021 15.30203977 21289
